STARLINK-36597          
1 67613U 26018AA  26046.92210701  .00109543  00000+0  56479-3 0  9995
2 67613  97.2856 111.6895 0001191  86.8994 273.2411 15.80842524  3887
NEONSAT-1A              
1 67614U 26019A   26046.94425457  .00003396  00000+0  22677-3 0  9997
2 67614  97.4096 171.3040 0012111 246.4627 113.5329 15.07606331  2541
ELECTRON KICK STAGE R/B 
1 67616U 26019C   26046.78068055  .00455134  61457-4  20771-2 0  9999
2 67616  97.4043 172.4350 0173982 202.0042 157.3685 15.64622392  2600
STARLINK-36548          
1 67617U 26020A   26046.88586318  .00172694  00000+0  10393-2 0  9998
2 67617  42.9975 274.7981 0002377 256.5155 103.5450 15.76424624  2642
STARLINK-36601          
1 67618U 26020B   26046.67474255  .00385430  00000+0  17418-2 0  9991
2 67618  42.9960 275.7823 0001362 242.4500 117.6234 15.82149394  2612
STARLINK-36119          
1 67619U 26020C   26046.88367039  .00152828  00000+0  92203-3 0  9995
2 67619  42.9971 274.7801 0002216 273.8024  86.2592 15.76429870  2642
STARLINK-36607          
1 67620U 26020D   26046.67297108  .00471430  00000+0  21085-2 0  9995
2 67620  42.9961 275.7677 0001150 260.7397  99.3344 15.82149084  2619
STARLINK-36615          
1 67621U 26020E   26046.67362175  .00459640  00000+0  20572-2 0  9992
2 67621  42.9960 275.7726 0001554 246.0666 114.0043 15.82164708  2619
STARLINK-36614          
1 67622U 26020F   26046.87929344  .00207185  00000+0  12405-2 0  9993
2 67622  42.9973 274.7452 0002592 277.0071  83.0504 15.76436529  2642
STARLINK-36600          
1 67623U 26020G   26046.88148152  .00096863  00000+0  58981-3 0  9994
2 67623  42.9968 274.7632 0002155 275.8637  84.1986 15.76412212  2645
STARLINK-36439          
1 67624U 26020H   26046.91668981  .00173957  00000+0  10549-2 0  9993
2 67624  42.9978 274.3969 0001958 309.2178 313.0685 15.76248169  3894
STARLINK-36438          
1 67625U 26020J   26046.87710485  .00161604  00000+0  97407-3 0  9991
2 67625  42.9971 274.7276 0002693 297.8243  62.2354 15.76422473  2645
STARLINK-36436          
1 67626U 26020K   26046.66902156  .00377667  00000+0  17068-2 0  9999
2 67626  42.9959 275.7357 0001381 272.6811  87.3903 15.82167759  2613
STARLINK-36502          
1 67627U 26020L   26046.66975289  .00368474  00000+0  16677-2 0  9998
2 67627  42.9958 275.7424 0001879 227.8567 132.2145 15.82161003  2614
STARLINK-36532          
1 67628U 26020M   26046.92033091  .00210686  00000+0  97526-3 0  9998
2 67628  42.9980 274.1787 0002373 274.7329  85.3272 15.82095303  2654
STARLINK-36367          
1 67629U 26020N   26045.97398618  .00321714  00000+0  15198-2 0  9991
2 67629  42.9980 279.9878 0004785 325.2326  34.8233 15.81353248  2501
STARLINK-36416          
1 67630U 26020P   26046.87491368  .00085088  00000+0  51869-3 0  9996
2 67630  42.9971 274.7103 0002438 279.6753  80.3841 15.76433395  2648
STARLINK-36527          
1 67631U 26020Q   26046.66670037  .00185093  00000+0  85719-3 0  9994
2 67631  42.9952 275.7167 0002352 218.1331 141.9375 15.82156455  2613
STARLINK-36633          
1 67632U 26020R   26046.66596506  .00406790  00000+0  18325-2 0  9991
2 67632  42.9965 275.7114 0001692 243.8503 116.2195 15.82162149  2614
STARLINK-36637          
1 67633U 26020S   26046.68264202  .00121493  00000+0  73573-3 0  9990
2 67633  42.9970 275.8474 0001649 241.4666 118.6037 15.76448765  2612
STARLINK-36617          
1 67634U 26020T   26046.66467721  .00774463  00000+0  32890-2 0  9997
2 67634  42.9967 275.7008 0003793 226.7762 133.2793 15.82490694  2613
STARLINK-36627          
1 67635U 26020U   26046.91668981  .00214453  00000+0  12947-2 0  9996
2 67635  42.9978 274.3339 0001841 252.4126  34.7703 15.76227932  3893
STARLINK-36624          
1 67636U 26020V   26046.91535726  .00186568  00000+0  86801-3 0  9993
2 67636  42.9968 274.1378 0001408 272.2251  87.8460 15.82054955  2654
STARLINK-36610          
1 67637U 26020W   26046.67825918  .00328147  00000+0  19313-2 0  9996
2 67637  42.9970 275.8113 0001637 235.6338 124.4377 15.76480871  2610
STARLINK-36599          
1 67638U 26020X   26046.66052315  .00445736  00000+0  19964-2 0  9995
2 67638  42.9958 275.6656 0001874 229.0706 131.0004 15.82185528  2615
STARLINK-36595          
1 67639U 26020Y   26046.65973743  .00394892  00000+0  17814-2 0  9990
2 67639  42.9961 275.6606 0001466 256.5453 103.5255 15.82162404  2616
STARLINK-36570          
1 67640U 26020Z   26046.91668981  .00174127  00000+0  10555-2 0  9998
2 67640  42.9977 274.2713 0001752 272.6494  39.4024 15.76257334  3893
STARLINK-36514          
1 67641U 26020AA  26046.65744541  .00427248  00000+0  19204-2 0  9992
2 67641  42.9962 275.6412 0002100 224.9492 135.1210 15.82156606  2612
STARLINK-36556          
1 67642U 26020AB  26045.89986705  .00445320  00000+0  20883-2 0  9994
2 67642  42.9973 280.2837 0000965 131.0329 229.0626 15.81195695  2492
STARLINK-36533          
1 67643U 26020AC  26046.67388236  .00143846  00000+0  86776-3 0  9999
2 67643  42.9973 275.7747 0001705 260.4529  99.6148 15.76461582  2613
STARLINK-36623          
1 67644U 26020AD  26046.91668981  .00061574  00000+0  37917-3 0  9995
2 67644  42.9978 274.2072 0001738 265.5755  71.3237 15.76318030  3893
STARLINK-36619          
1 67645U 26020AE  26046.91668981  .00146366  00000+0  89138-3 0  9991
2 67645  42.9979 274.1764 0001804 265.7904  83.6055 15.76238084  3898
ALSAT-3B                
1 67646U 26021A   26046.97476100  .00007380  00000+0  31057-3 0  9998
2 67646  97.4716 121.4052 0012083 205.8699 154.1935 15.23612337  2411
CZ-2C R/B               
1 67647U 26021B   26046.91213329  .00014336  00000+0  43249-3 0  9990
2 67647  97.6556 121.9425 0153592  86.9231 274.9567 15.23488351  2381
STARLINK-36719          
1 67648U 26022A   26046.91668981  .00062844  00000+0  41998-3 0  9996
2 67648  97.2839  79.8085 0001476  75.7787 173.5807 15.75141554  3391
STARLINK-36342          
1 67649U 26022B   26046.91668981  .00053731  00000+0  35954-3 0  9997
2 67649  97.2839  79.8095 0001104  86.0198 167.3384 15.75145681  3398
STARLINK-36703          
1 67650U 26022C   26046.91668981  .00099753  00000+0  66362-3 0  9990
2 67650  97.2839  79.8124 0001674  87.7116 171.6481 15.75128470  3396
STARLINK-36696          
1 67651U 26022D   26046.91668981  .00082465  00000+0  54992-3 0  9999
2 67651  97.2835  79.8166 0001836  86.2579 183.1107 15.75126164  3397
STARLINK-36699          
1 67652U 26022E   26046.91668981  .00049947  00000+0  33445-3 0  9998
2 67652  97.2835  79.8182 0001123  76.6930 196.6674 15.75143899  3391
STARLINK-36694          
1 67653U 26022F   26046.91668981 -.00499619  00000+0 -34992-2 0  9993
2 67653  97.2836  79.8236 0001520  80.2037 204.9746 15.75509269  3393
STARLINK-36620          
1 67654U 26022G   26046.91668981  .00092422  00000+0  61557-3 0  9991
2 67654  97.2833  79.8235 0000929  63.3632 223.9951 15.75124469  3399
STARLINK-36720          
1 67655U 26022H   26046.91668981 -.00316361  00000+0 -21814-2 0  9996
2 67655  97.2835  79.8286 0001975  85.6683 211.5702 15.75377217  3391
STARLINK-36688          
1 67656U 26022J   26046.91668981 -.00108843  00000+0 -73661-3 0  9999
2 67656  97.2835  79.8293 0001412  85.4880 215.8234 15.75238624  3398
STARLINK-36706          
1 67657U 26022K   26046.91668981 -.00832502  00000+0 -59955-2 0  9995
2 67657  97.2825  79.8318 0001796  84.7589 224.2842 15.75756484  3364
STARLINK-36701          
1 67658U 26022L   26046.91668981 -.00705272  00000+0 -50270-2 0  9990
2 67658  97.2827  79.8353 0001476  86.3665 228.7394 15.75654230  3394
STARLINK-36642          
1 67659U 26022M   26046.91668981 -.01156630  00000+0 -83805-2 0  9990
2 67659  97.2818  79.8383 0001454  84.1341 236.7267 15.76033341  3394
STARLINK-36673          
1 67660U 26022N   26046.91668981 -.01604358  00000+0 -11632-1 0  9995
2 67660  97.2818  79.8401 0001591  85.0622 243.4147 15.76515447  3395
STARLINK-36674          
1 67661U 26022P   26046.91668981 -.01782573  00000+0 -12397-1 0  9991
2 67661  97.2837  79.8449 0001526  93.9889 241.4422 15.77267237  3396
STARLINK-36700          
1 67662U 26022Q   26046.91668981 -.01853917  00000+0 -12990-1 0  9992
2 67662  97.2816  79.8489 0001293  96.8946 250.6417 15.77227475  3391
STARLINK-36675          
1 67663U 26022R   26046.91668981 -.01738076  00000+0 -12316-1 0  9993
2 67663  97.2821  79.8454 0001610  89.5288 250.6492 15.76769425  3399
STARLINK-36404          
1 67664U 26022S   26046.91668981 -.01882615  00000+0 -12770-1 0  9997
2 67664  97.2804  79.8510 0001434  69.7991 286.1223 15.77999803  3368
STARLINK-36399          
1 67665U 26022T   26046.91668981 -.01890910  00000+0 -12896-1 0  9994
2 67665  97.2799  79.8525 0001484  79.2248 280.9670 15.77892379  3362
STARLINK-36365          
1 67666U 26022U   26046.91668981 -.01888958  00000+0 -12778-1 0  9993
2 67666  97.2803  79.8570 0001434  81.6365 286.1236 15.78070211  3394
STARLINK-36622          
1 67667U 26022V   26046.91668981 -.01876714  00000+0 -12406-1 0  9999
2 67667  97.2829  79.8602 0001340  79.4298 296.9847 15.78560662  3396
STARLINK-36625          
1 67668U 26022W   26046.91668981 -.01879807  00000+0 -12465-1 0  9991
2 67668  97.2826  79.8634 0001630  68.5975 316.0098 15.78494600  3392
STARLINK-36639          
1 67669U 26022X   26046.91668981 -.01880870  00000+0 -12244-1 0  9999
2 67669  97.2795  79.8673 0001619  76.9565 316.4118 15.78903438  3397
STARLINK-36596          
1 67670U 26022Y   26046.91668981 -.01882137  00000+0 -11875-1 0  9998
2 67670  97.2807  79.8698 0001442  73.2518 327.7027 15.79594161  3396
STARLINK-36297          
1 67671U 26022Z   26046.91668981 -.01896424  00000+0 -11879-1 0  9997
2 67671  97.2805  79.8742 0001612  80.1754 332.1229 15.79773855  3396
STARLINK-36616          
1 67672U 26022AA  26046.91668981 -.01883859  00000+0 -12107-1 0  9991
2 67672  97.2787  79.8720 0001474  62.1592 344.2590 15.79192595  3399
